{"fetched_at":"2026-03-29T16:36:15Z","count":15609,"tles":[{"name":"STARLINK-35810","line1":"1 66575U 25268U   26087.75405667  .00036739  00000+0  13363-2 0  9990","line2":"2 66575  43.0037 239.5482 0001744 266.8787  93.1866 15.27619520 20879","category":"Starlink"}]}