{
  "norad_id": 66575,
  "name": "STARLINK-35810",
  "history": [
    {
      "epoch": "2026-03-28T18:05:50.496288Z",
      "apogee_km": 484.12794920729993,
      "perigee_km": 481.73357377989396,
      "latitude_deg": 6.675171823955858e-05,
      "longitude_deg": 141.91790193946252,
      "height_km": 482.7733183115524,
      "semi_major_axis_km": 6861.067761493597,
      "eccentricity": 0.00017449,
      "inclination_deg": 43.0037,
      "raan_deg": 239.5482,
      "arg_perigee_deg": 266.8787,
      "mean_anomaly_deg": 93.1866,
      "mean_motion_rev_day": 15.2761952
    }
  ]
}